SL-3 R/B                
1 05118U 71028B   17345.95380592  .00000077  00000-0  26777-5 0  9992
2 05118  81.2553 310.5130 0048525  35.6153 324.8295 15.13836134530827
